[{"OBJECT_NAME":"O3B FM10","OBJECT_ID":"2014-083A","EPOCH":"2026-04-26T14:06:07.752672","MEAN_MOTION":5.00115309,"ECCENTRICITY":0.0002657,"INCLINATION":0.0387,"RA_OF_ASC_NODE":337.8692,"ARG_OF_PERICENTER":58.018,"MEAN_ANOMALY":324.1291,"EPHEMERIS_TYPE":0,"CLASSIFICATION_TYPE":"U","NORAD_CAT_ID":40348,"ELEMENT_SET_NO":999,"REV_AT_EPOCH":20731,"BSTAR":0,"MEAN_MOTION_DOT":-2.7e-7,"MEAN_MOTION_DDOT":0},{"OBJECT_NAME":"O3B FM11","OBJECT_ID":"2014-083B","EPOCH":"2026-04-26T14:24:23.727168","MEAN_MOTION":5.0011556,"ECCENTRICITY":0.0002917,"INCLINATION":0.0578,"RA_OF_ASC_NODE":359.2869,"ARG_OF_PERICENTER":22.513,"MEAN_ANOMALY":338.211,"EPHEMERIS_TYPE":0,"CLASSIFICATION_TYPE":"U","NORAD_CAT_ID":40349,"ELEMENT_SET_NO":999,"REV_AT_EPOCH":20732,"BSTAR":0,"MEAN_MOTION_DOT":-2.7e-7,"MEAN_MOTION_DDOT":0},{"OBJECT_NAME":"O3B FM12","OBJECT_ID":"2014-083C","EPOCH":"2026-04-26T15:03:21.431232","MEAN_MOTION":5.0011589,"ECCENTRICITY":0.0002541,"INCLINATION":0.057,"RA_OF_ASC_NODE":358.9779,"ARG_OF_PERICENTER":33.207,"MEAN_ANOMALY":327.8291,"EPHEMERIS_TYPE":0,"CLASSIFICATION_TYPE":"U","NORAD_CAT_ID":40350,"ELEMENT_SET_NO":999,"REV_AT_EPOCH":20734,"BSTAR":0,"MEAN_MOTION_DOT":-2.7e-7,"MEAN_MOTION_DDOT":0},{"OBJECT_NAME":"O3B FM9","OBJECT_ID":"2014-083D","EPOCH":"2026-04-26T15:41:59.647776","MEAN_MOTION":5.00115928,"ECCENTRICITY":0.0002708,"INCLINATION":0.059,"RA_OF_ASC_NODE":359.1012,"ARG_OF_PERICENTER":35.8424,"MEAN_ANOMALY":325.0726,"EPHEMERIS_TYPE":0,"CLASSIFICATION_TYPE":"U","NORAD_CAT_ID":40351,"ELEMENT_SET_NO":999,"REV_AT_EPOCH":20749,"BSTAR":0,"MEAN_MOTION_DOT":-2.7e-7,"MEAN_MOTION_DDOT":0},{"OBJECT_NAME":"ASTRA 2G","OBJECT_ID":"2014-089A","EPOCH":"2026-04-26T20:32:47.320800","MEAN_MOTION":1.00271334,"ECCENTRICITY":0.0004788,"INCLINATION":0.0572,"RA_OF_ASC_NODE":30.8938,"ARG_OF_PERICENTER":13.6479,"MEAN_ANOMALY":146.6883,"EPHEMERIS_TYPE":0,"CLASSIFICATION_TYPE":"U","NORAD_CAT_ID":40364,"ELEMENT_SET_NO":999,"REV_AT_EPOCH":4145,"BSTAR":0,"MEAN_MOTION_DOT":1.38e-6,"MEAN_MOTION_DDOT":0},{"OBJECT_NAME":"SES-9","OBJECT_ID":"2016-013A","EPOCH":"2026-04-26T17:30:19.312416","MEAN_MOTION":1.00270561,"ECCENTRICITY":0.0002062,"INCLINATION":0.0163,"RA_OF_ASC_NODE":283.5415,"ARG_OF_PERICENTER":136.6947,"MEAN_ANOMALY":165.3595,"EPHEMERIS_TYPE":0,"CLASSIFICATION_TYPE":"U","NORAD_CAT_ID":41380,"ELEMENT_SET_NO":999,"REV_AT_EPOCH":3692,"BSTAR":0,"MEAN_MOTION_DOT":-3.57e-6,"MEAN_MOTION_DDOT":0},{"OBJECT_NAME":"SES-10","OBJECT_ID":"2017-017A","EPOCH":"2026-04-26T20:05:42.420192","MEAN_MOTION":1.00272132,"ECCENTRICITY":0.000292,"INCLINATION":0.0285,"RA_OF_ASC_NODE":20.6273,"ARG_OF_PERICENTER":29.4648,"MEAN_ANOMALY":39.2761,"EPHEMERIS_TYPE":0,"CLASSIFICATION_TYPE":"U","NORAD_CAT_ID":42432,"ELEMENT_SET_NO":999,"REV_AT_EPOCH":3323,"BSTAR":0,"MEAN_MOTION_DOT":-2.84e-6,"MEAN_MOTION_DDOT":0},{"OBJECT_NAME":"SES-15","OBJECT_ID":"2017-026A","EPOCH":"2026-04-26T17:24:46.065888","MEAN_MOTION":1.00269771,"ECCENTRICITY":6.32e-5,"INCLINATION":0.0245,"RA_OF_ASC_NODE":325.6634,"ARG_OF_PERICENTER":43.2935,"MEAN_ANOMALY":337.8043,"EPHEMERIS_TYPE":0,"CLASSIFICATION_TYPE":"U","NORAD_CAT_ID":42709,"ELEMENT_SET_NO":999,"REV_AT_EPOCH":691,"BSTAR":0,"MEAN_MOTION_DOT":4.8e-7,"MEAN_MOTION_DDOT":0},{"OBJECT_NAME":"SES-11 (ECHOSTAR 105)","OBJECT_ID":"2017-063A","EPOCH":"2026-04-26T14:46:48.544032","MEAN_MOTION":1.00269641,"ECCENTRICITY":0.0002928,"INCLINATION":0.0196,"RA_OF_ASC_NODE":65.9987,"ARG_OF_PERICENTER":357.1886,"MEAN_ANOMALY":268.178,"EPHEMERIS_TYPE":0,"CLASSIFICATION_TYPE":"U","NORAD_CAT_ID":42967,"ELEMENT_SET_NO":999,"REV_AT_EPOCH":3120,"BSTAR":0,"MEAN_MOTION_DOT":0,"MEAN_MOTION_DDOT":0},{"OBJECT_NAME":"SES-14","OBJECT_ID":"2018-012B","EPOCH":"2026-04-26T09:55:07.824864","MEAN_MOTION":1.00272597,"ECCENTRICITY":8.793e-5,"INCLINATION":0.0426,"RA_OF_ASC_NODE":52.9389,"ARG_OF_PERICENTER":336.97,"MEAN_ANOMALY":285.8004,"EPHEMERIS_TYPE":0,"CLASSIFICATION_TYPE":"U","NORAD_CAT_ID":43175,"ELEMENT_SET_NO":999,"REV_AT_EPOCH":650,"BSTAR":0,"MEAN_MOTION_DOT":-2.91e-6,"MEAN_MOTION_DDOT":0},{"OBJECT_NAME":"O3B FM15","OBJECT_ID":"2018-024A","EPOCH":"2026-04-26T12:30:19.279008","MEAN_MOTION":5.00115707,"ECCENTRICITY":0.0002637,"INCLINATION":0.051,"RA_OF_ASC_NODE":4.2349,"ARG_OF_PERICENTER":29.2807,"MEAN_ANOMALY":326.4995,"EPHEMERIS_TYPE":0,"CLASSIFICATION_TYPE":"U","NORAD_CAT_ID":43231,"ELEMENT_SET_NO":999,"REV_AT_EPOCH":14844,"BSTAR":0,"MEAN_MOTION_DOT":-2.7e-7,"MEAN_MOTION_DDOT":0},{"OBJECT_NAME":"O3B FM16","OBJECT_ID":"2018-024B","EPOCH":"2026-04-26T08:57:51.920640","MEAN_MOTION":5.00115916,"ECCENTRICITY":0.00026845,"INCLINATION":0.0487,"RA_OF_ASC_NODE":8.192,"ARG_OF_PERICENTER":23.6117,"MEAN_ANOMALY":328.2109,"EPHEMERIS_TYPE":0,"CLASSIFICATION_TYPE":"U","NORAD_CAT_ID":43232,"ELEMENT_SET_NO":999,"REV_AT_EPOCH":14835,"BSTAR":0,"MEAN_MOTION_DOT":-2.7e-7,"MEAN_MOTION_DDOT":0},{"OBJECT_NAME":"O3B FM14","OBJECT_ID":"2018-024C","EPOCH":"2026-04-26T00:20:54.276576","MEAN_MOTION":5.00115703,"ECCENTRICITY":0.00028607,"INCLINATION":0.0471,"RA_OF_ASC_NODE":8.2311,"ARG_OF_PERICENTER":27.6841,"MEAN_ANOMALY":324.1024,"EPHEMERIS_TYPE":0,"CLASSIFICATION_TYPE":"U","NORAD_CAT_ID":43233,"ELEMENT_SET_NO":999,"REV_AT_EPOCH":14834,"BSTAR":0,"MEAN_MOTION_DOT":-2.7e-7,"MEAN_MOTION_DDOT":0},{"OBJECT_NAME":"O3B FM13","OBJECT_ID":"2018-024D","EPOCH":"2026-04-26T01:55:44.770656","MEAN_MOTION":5.00115553,"ECCENTRICITY":0.00035807,"INCLINATION":0.0556,"RA_OF_ASC_NODE":328.9915,"ARG_OF_PERICENTER":21.8257,"MEAN_ANOMALY":9.1746,"EPHEMERIS_TYPE":0,"CLASSIFICATION_TYPE":"U","NORAD_CAT_ID":43234,"ELEMENT_SET_NO":999,"REV_AT_EPOCH":14845,"BSTAR":0,"MEAN_MOTION_DOT":-2.7e-7,"MEAN_MOTION_DDOT":0},{"OBJECT_NAME":"SES-12","OBJECT_ID":"2018-049A","EPOCH":"2026-04-26T21:12:21.502080","MEAN_MOTION":1.00267263,"ECCENTRICITY":0.0001237,"INCLINATION":0.0144,"RA_OF_ASC_NODE":63.2838,"ARG_OF_PERICENTER":244.0053,"MEAN_ANOMALY":320.6885,"EPHEMERIS_TYPE":0,"CLASSIFICATION_TYPE":"U","NORAD_CAT_ID":43488,"ELEMENT_SET_NO":999,"REV_AT_EPOCH":2890,"BSTAR":0,"MEAN_MOTION_DOT":0,"MEAN_MOTION_DDOT":0},{"OBJECT_NAME":"O3B FM20","OBJECT_ID":"2019-020A","EPOCH":"2026-04-26T15:21:55.718208","MEAN_MOTION":5.0011551,"ECCENTRICITY":0.0002587,"INCLINATION":0.0532,"RA_OF_ASC_NODE":1.3328,"ARG_OF_PERICENTER":24.1404,"MEAN_ANOMALY":334.538,"EPHEMERIS_TYPE":0,"CLASSIFICATION_TYPE":"U","NORAD_CAT_ID":44112,"ELEMENT_SET_NO":999,"REV_AT_EPOCH":12899,"BSTAR":0,"MEAN_MOTION_DOT":-2.7e-7,"MEAN_MOTION_DDOT":0},{"OBJECT_NAME":"O3B FM19","OBJECT_ID":"2019-020B","EPOCH":"2026-04-21T16:04:51.104352","MEAN_MOTION":5.00115966,"ECCENTRICITY":0.0003491,"INCLINATION":0.0716,"RA_OF_ASC_NODE":348.2754,"ARG_OF_PERICENTER":26.5306,"MEAN_ANOMALY":345.2041,"EPHEMERIS_TYPE":0,"CLASSIFICATION_TYPE":"U","NORAD_CAT_ID":44113,"ELEMENT_SET_NO":999,"REV_AT_EPOCH":12861,"BSTAR":0,"MEAN_MOTION_DOT":-2.2e-7,"MEAN_MOTION_DDOT":0}]
